NORAD_CAT_ID,OBJECT_NAME,OBJECT_TYPE,EPOCH,MEAN_MOTION,ECCENTRICITY,INCLINATION,RA_OF_ASC_NODE,ARG_OF_PERICENTER,MEAN_ANOMALY,BSTAR,MEAN_MOTION_DOT,MEAN_MOTION_DDOT,TLE_LINE0,TLE_LINE1,TLE_LINE2,SEMIMAJOR_AXIS,PERIOD,APOGEE,PERIGEE,DECAYED
53869.0,STARLINK-4810,PAYLOAD,2024-04-27 04:35:23,15.08851226,0.0001249,53.2157,93.1544,91.132,268.9815,0.00016285,2.306e-05,0.0,0 STARLINK-4810,1 53869U 22114BD  24118.19124730  .00002306  00000-0  16285-3 0  9990,2 53869  53.2157  93.1544 0001249  91.1320 268.9815 15.08851226 89839,6917.846,95.437,540.575,538.847,0.0
53869.0,STARLINK-4810,PAYLOAD,2024-04-27 07:46:09,15.08857485,0.0001341,53.2163,92.5585,95.0454,265.0692,0.00025825,3.826e-05,0.0,0 STARLINK-4810,1 53869U 22114BD  24118.32372355  .00003826  00000-0  25825-3 0  9991,2 53869  53.2163  92.5585 0001341  95.0454 265.0692 15.08857485 90395,6917.827,95.436,540.62,538.764,0.0
53869.0,STARLINK-4810,PAYLOAD,2024-04-27 15:43:04,15.08865274,0.0001088,53.2157,91.072,92.0777,268.034,0.00032633,4.913e-05,0.0,0 STARLINK-4810,1 53869U 22114BD  24118.65491410  .00004913  00000-0  32633-3 0  9994,2 53869  53.2157  91.0720 0001088  92.0777 268.0340 15.08865274 89909,6917.803,95.436,540.421,538.915,0.0
53869.0,STARLINK-4810,PAYLOAD,2024-04-28 04:26:11,15.08826048,0.0001298,53.2158,88.6941,79.6189,280.495,-0.00014187,-2.544e-05,0.0,0 STARLINK-4810,1 53869U 22114BD  24119.18485718 -.00002544  00000-0 -14187-3 0  9991,2 53869  53.2158  88.6941 0001298  79.6189 280.4950 15.08826048 89987,6917.923,95.438,540.686,538.89,0.0
53869.0,STARLINK-4810,PAYLOAD,2024-04-28 07:36:57,15.08830346,0.000138,53.2163,88.0983,84.3838,275.7312,-8.3112e-05,-1.61e-05,0.0,0 STARLINK-4810,1 53869U 22114BD  24119.31733592 -.00001610  00000-0 -83112-4 0  9990,2 53869  53.2163  88.0983 0001380  84.3838 275.7312 15.08830346 90548,6917.91,95.438,540.73,538.82,0.0
53869.0,STARLINK-4810,PAYLOAD,2024-04-28 15:33:53,15.08837277,0.0001452,53.2169,86.6129,82.2599,277.8558,1.568e-05,-3.8e-07,0.0,0 STARLINK-4810,1 53869U 22114BD  24119.64853354 -.00000038  00000-0  15680-4 0  9992,2 53869  53.2169  86.6129 0001452  82.2599 277.8558 15.08837277 90052,6917.889,95.438,540.758,538.749,0.0
53869.0,STARLINK-4810,PAYLOAD,2024-04-29 07:27:44,15.08840406,0.0001577,53.2183,83.6387,84.8029,275.3143,0.0001119,1.493e-05,0.0,0 STARLINK-4810,1 53869U 22114BD  24120.31093419  .00001493  00000-0  11190-3 0  9992,2 53869  53.2183  83.6387 0001577  84.8029 275.3143 15.08840406 90696,6917.879,95.438,540.835,538.653,0.0
53869.0,STARLINK-4810,PAYLOAD,2024-04-30 04:07:45,15.08843856,0.000148,53.2179,79.7736,79.7201,280.3958,0.00031447,4.721e-05,0.0,0 STARLINK-4810,1 53869U 22114BD  24121.17205613  .00004721  00000-0  31447-3 0  9992,2 53869  53.2179  79.7736 0001480  79.7201 280.3958 15.08843856 90280,6917.869,95.437,540.757,538.71,0.0
53869.0,STARLINK-4810,PAYLOAD,2024-04-30 13:40:04,15.08853011,0.0001486,53.2181,77.9893,80.8304,279.2856,0.0003966,6.032e-05,0.0,0 STARLINK-4810,1 53869U 22114BD  24121.56949181  .00006032  00000-0  39660-3 0  9992,2 53869  53.2181  77.9893 0001486  80.8304 279.2856 15.08853011 90884,6917.841,95.437,540.734,538.678,0.0
53869.0,STARLINK-4810,PAYLOAD,2024-05-01 03:58:32,15.08841327,0.0001383,53.2176,75.3137,85.7614,274.3536,9.9735e-05,1.3e-05,0.0,0 STARLINK-4810,1 53869U 22114BD  24122.16565585  .00001300  00000-0  99735-4 0  9994,2 53869  53.2176  75.3137 0001383  85.7614 274.3536 15.08841327 90434,6917.876,95.437,540.698,538.785,0.0
53869.0,STARLINK-4810,PAYLOAD,2024-05-01 13:30:51,15.08849488,0.0001421,53.2177,73.5285,84.4799,275.6355,0.0002923,4.368e-05,0.0,0 STARLINK-4810,1 53869U 22114BD  24122.56309299  .00004368  00000-0  29230-3 0  9995,2 53869  53.2177  73.5285 0001421  84.4799 275.6355 15.08849488 91038,6917.851,95.437,540.699,538.733,0.0
53869.0,STARLINK-4810,PAYLOAD,2024-05-01 21:27:47,15.08841286,0.0001922,53.2203,72.0467,104.2855,255.8351,0.00018253,2.618e-05,0.0,0 STARLINK-4810,1 53869U 22114BD  24122.89429639  .00002618  00000-0  18253-3 0  9991,2 53869  53.2203  72.0467 0001922 104.2855 255.8351 15.08841286 91083,6917.876,95.437,541.071,538.412,0.0
53869.0,STARLINK-4810,PAYLOAD,2024-05-02 13:21:38,15.0884796,0.0001568,53.219,69.0712,92.0348,268.0824,0.00023386,3.437e-05,0.0,0 STARLINK-4810,1 53869U 22114BD  24123.55669410  .00003437  00000-0  23386-3 0  9991,2 53869  53.2190  69.0712 0001568  92.0348 268.0824 15.08847960 90641,6917.856,95.437,540.806,538.636,0.0
53869.0,STARLINK-4810,PAYLOAD,2024-05-03 13:12:24,15.08861854,0.0001589,53.2171,64.6075,68.8376,291.2786,0.00041818,6.378e-05,0.0,0 STARLINK-4810,1 53869U 22114BD  24124.55028563  .00006378  00000-0  41818-3 0  9997,2 53869  53.2171  64.6075 0001589  68.8376 291.2786 15.08861854 91338,6917.814,95.436,540.778,538.579,0.0
53869.0,STARLINK-4810,PAYLOAD,2024-05-04 05:06:17,15.0881847,0.0001349,53.2164,61.6335,76.6097,283.5045,-0.00036026,-6.013e-05,0.0,0 STARLINK-4810,1 53869U 22114BD  24125.21270443 -.00006013  00000-0 -36026-3 0  9990,2 53869  53.2164  61.6335 0001349  76.6097 283.5045 15.08818470 90895,6917.946,95.439,540.744,538.878,0.0
53869.0,STARLINK-4810,PAYLOAD,2024-05-04 19:24:46,15.08828905,0.0001462,53.2169,58.959,75.1577,284.9577,0.00048742,7.475e-05,0.0,0 STARLINK-4810,1 53869U 22114BD  24125.80887244  .00007475  00000-0  48742-3 0  9997,2 53869  53.2169  58.9590 0001462  75.1577 284.9577 15.08828905 90984,6917.914,95.438,540.791,538.768,0.0
53869.0,STARLINK-4810,PAYLOAD,2024-05-05 04:57:05,15.08845587,0.0001469,53.2169,57.1751,73.5868,286.5285,0.0014954,0.00023595,0.0,0 STARLINK-4810,1 53869U 22114BD  24126.20631578  .00023595  00000-0  14954-2 0  9997,2 53869  53.2169  57.1751 0001469  73.5868 286.5285 15.08845587 91043,6917.863,95.437,540.745,538.712,0.0
53869.0,STARLINK-4810,PAYLOAD,2024-05-05 22:26:19,15.08870295,0.0001467,53.2176,53.9038,75.5142,284.6012,0.0014596,0.00023037,0.0,0 STARLINK-4810,1 53869U 22114BD  24126.93494843  .00023037  00000-0  14596-2 0  9992,2 53869  53.2176  53.9038 0001467  75.5142 284.6012 15.08870295 91690,6917.788,95.436,540.668,538.638,0.0
53869.0,STARLINK-4810,PAYLOAD,2024-05-06 01:37:05,15.08878833,0.0001449,53.2175,53.3087,76.4412,283.6741,0.0014558,0.00022982,0.0,0 STARLINK-4810,1 53869U 22114BD  24127.06742490  .00022982  00000-0  14558-2 0  9997,2 53869  53.2175  53.3087 0001449  76.4412 283.6741 15.08878833 91174,6917.762,95.435,540.629,538.624,0.0
53869.0,STARLINK-4810,PAYLOAD,2024-05-06 22:17:05,15.08882221,0.0001339,53.2179,49.4433,91.6184,268.4961,0.0011174,0.00017561,0.0,0 STARLINK-4810,1 53869U 22114BD  24127.92853241  .00017561  00000-0  11174-2 0  9997,2 53869  53.2179  49.4433 0001339  91.6184 268.4961 15.08882221 91847,6917.751,95.435,540.543,538.69,0.0
53869.0,STARLINK-4810,PAYLOAD,2024-05-07 04:38:37,15.08868605,0.0001292,53.2185,48.2543,85.3178,274.7962,0.00069561,0.00010809,0.0,0 STARLINK-4810,1 53869U 22114BD  24128.19348993  .00010809  00000-0  69561-3 0  9992,2 53869  53.2185  48.2543 0001292  85.3178 274.7962 15.08868605 91340,6917.793,95.436,540.552,538.764,0.0
53869.0,STARLINK-4810,PAYLOAD,2024-05-07 22:07:52,15.08841194,0.0001656,53.2183,44.977,110.8126,249.3043,0.00012491,1.701e-05,0.0,0 STARLINK-4810,1 53869U 22114BD  24128.92213603  .00001701  00000-0  12491-3 0  9993,2 53869  53.2183  44.9770 0001656 110.8126 249.3043 15.08841194 91997,6917.877,95.437,540.887,538.596,0.0
53869.0,STARLINK-4810,PAYLOAD,2024-05-08 01:18:39,15.0883243,0.0001342,53.2178,44.3841,99.3032,260.8112,-8.8873e-05,-1.702e-05,0.0,0 STARLINK-4810,1 53869U 22114BD  24129.05461812 -.00001702  00000-0 -88873-4 0  9996,2 53869  53.2178  44.3841 0001342  99.3032 260.8112 15.08832430 91474,6917.904,95.438,540.697,538.84,0.0
53869.0,STARLINK-4810,PAYLOAD,2024-05-08 10:50:57,15.08840266,0.000119,53.2169,42.6046,88.0403,272.0725,9.7515e-05,1.264e-05,0.0,0 STARLINK-4810,1 53869U 22114BD  24129.45205941  .00001264  00000-0  97515-4 0  9993,2 53869  53.2169  42.6046 0001190  88.0403 272.0725 15.08840266 92078,6917.88,95.438,540.568,538.921,0.0
53869.0,STARLINK-4810,PAYLOAD,2024-05-08 21:58:40,15.08835919,0.000128,53.2185,40.524,96.2731,263.8407,8.963e-05,1.139e-05,0.0,0 STARLINK-4810,1 53869U 22114BD  24129.91574345  .00001139  00000-0  89630-4 0  9991,2 53869  53.2185  40.5240 0001280  96.2731 263.8407 15.08835919 92146,6917.893,95.438,540.643,538.872,0.0
53869.0,STARLINK-4810,PAYLOAD,2024-05-09 10:41:44,15.0885889,0.0001207,53.2187,38.1418,84.0206,276.0924,0.00057337,8.854e-05,0.0,0 STARLINK-4810,1 53869U 22114BD  24130.44565396  .00008854  00000-0  57337-3 0  9996,2 53869  53.2187  38.1418 0001207  84.0206 276.0924 15.08858890 91680,6917.823,95.436,540.523,538.853,0.0
53869.0,STARLINK-4810,PAYLOAD,2024-05-09 21:49:27,15.08835282,0.0001353,53.2182,36.0661,92.3783,267.7364,7.9195e-05,9.73e-06,0.0,0 STARLINK-4810,1 53869U 22114BD  24130.90934529  .00000973  00000-0  79195-4 0  9996,2 53869  53.2182  36.0661 0001353  92.3783 267.7364 15.08835282 92299,6917.895,95.438,540.696,538.824,0.0
53869.0,STARLINK-4810,PAYLOAD,2024-05-10 02:35:36,15.08846041,0.0001491,53.219,35.1724,88.3675,271.7488,0.00036474,5.523e-05,0.0,0 STARLINK-4810,1 53869U 22114BD  24131.10806396  .00005523  00000-0  36474-3 0  9997,2 53869  53.2190  35.1724 0001491  88.3675 271.7488 15.08846041 91786,6917.862,95.437,540.758,538.695,0.0
53869.0,STARLINK-4810,PAYLOAD,2024-05-10 21:40:14,15.08844938,0.0001638,53.2179,31.6031,89.0878,271.0302,0.00055814,8.607e-05,0.0,0 STARLINK-4810,1 53869U 22114BD  24131.90294844  .00008607  00000-0  55814-3 0  9999,2 53869  53.2179  31.6031 0001638  89.0878 271.0302 15.08844938 92446,6917.865,95.437,540.863,538.597,0.0
53869.0,STARLINK-4810,PAYLOAD,2024-05-11 10:23:17,15.08982089,0.0001479,53.2179,29.2244,65.7983,294.3164,0.0080414,0.00130579,0.0,0 STARLINK-4810,1 53869U 22114BD  24132.43284511  .00130579  00000-0  80414-2 0  9995,2 53869  53.2179  29.2244 0001479  65.7983 294.3164 15.08982089 91988,6917.446,95.429,540.334,538.288,0.0
